1 08820U 76039A   03287.90509457  .00000000  00000-0  10000-3 0  9693
2 08820 109.8207 222.5734 0044373 275.7930  83.7589  6.38664562384704
